[Satellite]
VERSION=1.1
NAME=ODIN
NICKNAME=ODIN
TLE1=1 26702U 01007A   17186.15807682 -.00000002  00000-0  40090-5 0  9996
TLE2=2 26702  97.6092 203.0143 0010888   0.5127 359.6110 15.07194037894356
